STARLINK-5036           
1 53917C 22119AH  23048.43798611  .00017360  00000+0  10888-2 0   484
2 53917  53.2173 285.1918 0001280  93.8788  79.0441 15.08814070    16
STARLINK-5012           
1 53918C 22119AJ  23048.42756944  .00014262  00000+0  89423-3 0   487
2 53918  53.2161 285.1153 0001175  62.4128 113.9499 15.08828469    16
STARLINK-5023           
1 53919C 22119AK  23048.43104167  .00015830  00000+0  99285-3 0   482
2 53919  53.2155 285.0594 0001354  93.6257 121.6583 15.08815555    18
STARLINK-5025           
1 53920C 22119AL  23048.43243056  .00012133  00000+0  76097-3 0   484
2 53920  53.2160 284.9805 0001367  75.9949 186.8872 15.08819558    15
STARLINK-5002           
1 53922C 22119AN  23048.43381944  .00009929  00000+0  62276-3 0   488
2 53922  53.2155 284.9296 0001438  88.5595 201.9104 15.08820601    19
STARLINK-5004           
1 53923C 22119AP  23048.43451389  .00010237  00000+0  64201-3 0   484
2 53923  53.2159 285.0042 0001221  74.0476 180.1303 15.08824884    19
STARLINK-5001           
1 53924C 22119AQ  23048.43243056  .00017845  00000+0  11193-2 0   488
2 53924  53.2155 280.2196 0000973  98.4576  46.5834 15.08811020    19
STARLINK-5011           
1 53925C 22119AR  23048.43451389  .00006364  00000+0  39917-3 0   488
2 53925  53.2158 284.7787 0001255  87.5354 286.8038 15.08825603    12
STARLINK-5014           
1 53926C 22119AS  23048.43381944  .00001960  00000+0  12291-3 0   481
2 53926  53.2164 279.9728 0001343  69.9071 208.0015 15.08842943    16
STARLINK-5008           
1 53927C 22119AT  23048.43104167  .00020665  00000+0  12965-2 0   482
2 53927  53.2169 280.1892 0001102  91.3915  71.3483 15.08799976    14
STARLINK-5009           
1 53928C 22119AU  23048.43243056  .00011350  00000+0  71186-3 0   486
2 53928  53.2156 275.0846 0001153  96.4736 121.3617 15.08820334    14
STARLINK-5018           
1 53929C 22119AV  23048.43312500  .00018055  00000+0  11323-2 0   483
2 53929  53.2161 284.8978 0001339  83.6151 223.0976 15.08814220    15
STARLINK-5010           
1 53930C 22119AW  23048.42826389 -.00006531  00000+0 -40947-3 0   482
2 53930  53.2158 274.9469 0001213  73.5602 201.7064 15.08853433    18
STARLINK-5015           
1 53931C 22119AX  23048.43034722  .00013418  00000+0  84165-3 0   486
2 53931  53.2173 269.9430 0001189  91.4668 197.4502 15.08815476    14
STARLINK-4772           
1 53932C 22119AY  23048.43520833  .00014482  00000+0  90830-3 0   488
2 53932  53.2164 270.4271 0001260  75.0568 339.9389 15.08816330    18
STARLINK-4782           
1 53933C 22119AZ  23048.43729167  .00015594  00000+0  97812-3 0   482
2 53933  53.2157 275.0235 0001338  90.0249 174.2585 15.08812267    14
STARLINK-4775           
1 53934C 22119BA  23048.43590278 -.00045171  00000+0 -29609-2 0   486
2 53934  53.2161 270.1941 0001550  88.2295  87.1079 15.07257378    11
STARLINK-5000           
1 53935C 22119BB  23048.41715278 -.00973468  00000+0 -57769-1 0   480
2 53935  53.2060 260.0762 0001439  86.5639  97.4445 15.11818065    10
STARLINK-4791           
1 53936C 22119BC  23048.43381944  .00011812  00000+0  74081-3 0   484
2 53936  53.2160 269.9629 0001122  76.9648 210.7786 15.08822823    15
STARLINK-4765           
1 53937C 22119BD  23048.43104167  .00002820  00000+0  17681-3 0   487
2 53937  53.2164 265.2906 0001236  91.8918  28.0335 15.08836506    12
STARLINK-4633           
1 53964C 22125A   23048.43868056 -.00019506  00000+0 -12236-2 0   489
2 53964  53.2151 195.3222 0001144  88.6193 283.0488 15.08845850    13
STARLINK-4578           
1 53965C 22125B   23048.43659722 -.00001252  00000+0 -78571-4 0   483
2 53965  53.2144 195.3030 0001063  71.3806 303.7831 15.08824808    15
STARLINK-4635           
1 53966C 22125C   23048.43729167 -.00028660  00000+0 -17975-2 0   486
2 53966  53.2151 195.2507 0001316  73.9652 330.1829 15.08860633    17
STARLINK-4634           
1 53967C 22125D   23048.44284722 -.00015659  00000+0 -98218-3 0   485
2 53967  53.2151 195.1853 0000747  92.3474   2.0407 15.08846574    10
STARLINK-4629           
1 53968C 22125E   23048.44215278 -.00004364  00000+0 -27377-3 0   485
2 53968  53.2155 195.0692 0001122  86.5689  64.1225 15.08830981    18
STARLINK-4468           
1 53969C 22125F   23048.44215278 -.00023687  00000+0 -14858-2 0   484
2 53969  53.2157 195.1483 0000874  97.6446  12.9932 15.08850847    16
STARLINK-4567           
1 53970C 22125G   23048.44006944 -.00012638  00000+0 -79278-3 0   486
2 53970  53.2159 190.5525 0001100  87.2011 174.1523 15.08836788    17
STARLINK-4639           
1 53971C 22125H   23048.44354167 -.00037491  00000+0 -23517-2 0   488
2 53971  53.2156 195.1022 0000900 100.1025  38.1257 15.08863971    12
STARLINK-5157           
1 53972C 22125J   23048.43520833 -.00029292  00000+0 -18370-2 0   484
2 53972  53.2148 190.3402 0001340  62.9184 292.1315 15.08865011    17
STARLINK-5156           
1 53973C 22125K   23048.43104167 -.00007022  00000+0 -44049-3 0   483
2 53973  53.2151 195.0804 0001156  80.6325  29.6999 15.08831082    11
STARLINK-5159           
1 53974C 22125L   23048.43034722 -.00024298  00000+0 -15245-2 0   482
2 53974  53.2176 174.8008 0001029  80.5718 196.2100 15.08843090    11
STARLINK-5137           
1 53975C 22125M   23048.39631944  .00371296  00000+0  22370-1 0   484
2 53975  53.2150 190.6282 0001130  83.7626   1.7114 15.09923779    19
STARLINK-5134           
1 53976C 22125N   23048.43173611 -.00054051  00000+0 -33898-2 0   489
2 53976  53.2164 174.9739 0001211  65.9283 133.0076 15.08888559    19
STARLINK-5094           
1 53977C 22125P   23048.42895833 -.00058465  00000+0 -38330-2 0   485
2 53977  53.2152 190.2962 0001262  87.1384 270.4488 15.07264605    12
STARLINK-5148           
1 53978C 22125Q   23048.41576389 -.00020769  00000+0 -13029-2 0   481
2 53978  53.2145 190.1574 0001109  92.0651 297.5306 15.08845379    18
STARLINK-5123           
1 53979C 22125R   23048.43243056 -.00030118  00000+0 -18894-2 0   480
2 53979  53.2157 190.1570 0000858  99.0919 341.0362 15.08854478    19
STARLINK-5133           
1 53980C 22125S   23048.43381944 -.00042667  00000+0 -26753-2 0   486
2 53980  53.2134 189.9601 0000953  60.9063 126.8457 15.08884450    17
STARLINK-5149           
1 53981C 22125T   23048.43034722 -.00022634  00000+0 -14202-2 0   484
2 53981  53.2156 174.9764 0001132  82.7768 113.8626 15.08839962    12
STARLINK-5120           
1 53982C 22125U   23048.43590278 -.00020975  00000+0 -13159-2 0   484
2 53982  53.2127 185.2165 0001123  83.9131 347.7311 15.08843167    19
STARLINK-5103           
1 53983C 22125V   23048.42548611 -.00033106  00000+0 -20771-2 0   486
2 53983  53.2168 175.0537 0001358  91.7661  38.4270 15.08852616    17
STARLINK-5142           
1 53984C 22125W   23048.42340278 -.00043255  00000+0 -27125-2 0   482
2 53984  53.2139 185.3896 0001481  59.9065 243.6879 15.08880660    14
STARLINK-5147           
1 53985C 22125X   23048.43173611  .00002878  00000+0  18053-3 0   484
2 53985  53.2156 185.4253 0001119  88.1606 220.7237 15.08820861    16
STARLINK-5119           
1 53986C 22125Y   23048.43243056 -.00026619  00000+0 -16700-2 0   483
2 53986  53.2169 174.8702 0001117  99.6616 148.3645 15.08849296    19
STARLINK-5112           
1 53987C 22125Z   23048.43243056 -.00042188  00000+0 -26461-2 0   488
2 53987  53.2147 185.3850 0001201  99.5329 233.1101 15.08872096    15
STARLINK-5113           
1 53988C 22125AA  23048.42826389 -.00016891  00000+0 -10596-2 0   488
2 53988  53.2127 185.3297 0001288  91.9303 258.1450 15.08841645    12
STARLINK-5115           
1 53989C 22125AB  23048.43729167 -.00023619  00000+0 -14817-2 0   482
2 53989  53.2154 185.1786 0001165  94.7690 359.2449 15.08847895    12
STARLINK-5075           
1 53990C 22125AC  23048.43104167 -.00026887  00000+0 -16867-2 0   488
2 53990  53.2131 185.2766 0001357  90.8726 294.3401 15.08850231    13
STARLINK-5118           
1 53991C 22125AD  23048.43451389 -.00025011  00000+0 -16408-2 0   489
2 53991  53.2182 172.1178 0001121  84.4987 128.7790 15.07206365    12
STARLINK-5108           
1 53992C 22125AE  23048.43312500 -.00018850  00000+0 -11825-2 0   482
2 53992  53.2129 185.1896 0001128  90.5908 345.9834 15.08843949    11
STARLINK-5121           
1 53993C 22125AF  23048.40604167 -.00047129  00000+0 -29561-2 0   480
2 53993  53.2173 180.0595 0001217  59.9681 357.0548 15.08876840    19
STARLINK-5125           
1 53994C 22125AG  23048.43659722 -.00013756  00000+0 -86301-3 0   486
2 53994  53.2134 185.0572 0001154  81.0634  74.4811 15.08834523    16
STARLINK-5097           
1 53995C 22125AH  23048.42548611 -.00019450  00000+0 -12201-2 0   484
2 53995  53.2130 185.1851 0001148  94.7561 320.3327 15.08843168    17
STARLINK-5131           
1 53996C 22125AJ  23048.40465278 -.00045797  00000+0 -28719-2 0   484
2 53996  53.2137 185.1615 0001006  99.7458 262.1470 15.08883313    14
STARLINK-5130           
1 53997C 22125AK  23048.43173611 -.00027320  00000+0 -17140-2 0   483
2 53997  53.2178 175.4184 0000415  90.3071 233.5886 15.08847863    17
STARLINK-5128           
1 53998C 22125AL  23048.42756944 -.00016492  00000+0 -10346-2 0   488
2 53998  53.2151 184.9878 0001081  99.9939  61.3393 15.08841751    12
STARLINK-5079           
1 53999C 22125AM  23048.43868056 -.00015879  00000+0 -99614-3 0   482
2 53999  53.2136 185.0858 0000882  93.9804  52.8512 15.08839731    12
STARLINK-5088           
1 54000C 22125AN  23048.43173611 -.00034840  00000+0 -21857-2 0   484
2 54000  53.2179 175.3788 0001004  98.5353 245.3770 15.08856819    15
STARLINK-5105           
1 54001C 22125AP  23048.39006944 -.00026605  00000+0 -16689-2 0   481
2 54001  53.2146 185.1460 0001049  85.7637 236.9734 15.08852912    14
STARLINK-5109           
1 54002C 22125AQ  23048.43798611 -.00044123  00000+0 -27675-2 0   488
2 54002  53.2155 174.9039 0001326  62.7008 195.4429 15.08874502    17
STARLINK-5114           
1 54003C 22125AR  23048.43868056 -.00034302  00000+0 -21519-2 0   489
2 54003  53.2139 184.9688 0000869 103.0820 103.8265 15.08858394    15
